{
    "links": {
        "self": "http://www.neowsapp.com/rest/v1/neo/3720357?api_key=iIulBulltgU6a56xZRHN4H3l9WmuAYTsLGpBGhQ2"
    },
    "id": "3720357",
    "neo_reference_id": "3720357",
    "name": "(2015 KS121)",
    "designation": "2015 KS121",
    "nasa_jpl_url": "http://ssd.jpl.nasa.gov/sbdb.cgi?sstr=3720357",
    "absolute_magnitude_h": 22.8,
    "estimated_diameter": {
        "kilometers": {
            "estimated_diameter_min": 0.0732073989,
            "estimated_diameter_max": 0.1636967205
        },
        "meters": {
            "estimated_diameter_min": 73.2073989347,
            "estimated_diameter_max": 163.696720474
        },
        "miles": {
            "estimated_diameter_min": 0.0454889547,
            "estimated_diameter_max": 0.1017163949
        },
        "feet": {
            "estimated_diameter_min": 240.181762721,
            "estimated_diameter_max": 537.0627483999
        }
    },
    "is_potentially_hazardous_asteroid": false,
    "close_approach_data": [
        {
            "close_approach_date": "2015-06-15",
            "close_approach_date_full": "2015-Jun-15 16:20",
            "epoch_date_close_approach": 1434385200000,
            "relative_velocity": {
                "kilometers_per_second": "14.4749272013",
                "kilometers_per_hour": "52109.737924531",
                "miles_per_hour": "32378.9646564954"
            },
            "miss_distance": {
                "astronomical": "0.1525636086",
                "lunar": "59.3472437454",
                "kilometers": "22823190.886073682",
                "miles": "14181673.2036815316"
            },
            "orbiting_body": "Earth"
        }
    ],
    "orbital_data": {
        "orbit_id": "8",
        "orbit_determination_date": "2017-04-06 08:33:28",
        "first_observation_date": "2015-05-23",
        "last_observation_date": "2015-06-16",
        "data_arc_in_days": 24,
        "observations_used": 36,
        "orbit_uncertainty": "7",
        "minimum_orbit_intersection": ".142593",
        "jupiter_tisserand_invariant": "4.064",
        "epoch_osculation": "2459000.5",
        "eccentricity": ".3635071950806666",
        "semi_major_axis": "1.670339919262846",
        "inclination": "25.94403558821879",
        "ascending_node_longitude": "75.86139310004729",
        "orbital_period": "788.5072983228622",
        "perihelion_distance": "1.063159340380342",
        "perihelion_argument": "230.2360063119405",
        "aphelion_distance": "2.277520498145351",
        "perihelion_time": "2458810.637488548106",
        "mean_anomaly": "86.68341341679626",
        "mean_motion": ".4565588685934958",
        "equinox": "J2000",
        "orbit_class": {
            "orbit_class_type": "AMO",
            "orbit_class_description": "Near-Earth asteroid orbits similar to that of 1221 Amor",
            "orbit_class_range": "1.017 AU < q (perihelion) < 1.3 AU"
        }
    },
    "is_sentry_object": false
}